{
    "links": {
        "self": "http://www.neowsapp.com/rest/v1/neo/3624593?api_key=iIulBulltgU6a56xZRHN4H3l9WmuAYTsLGpBGhQ2"
    },
    "id": "3624593",
    "neo_reference_id": "3624593",
    "name": "(2013 BR15)",
    "designation": "2013 BR15",
    "nasa_jpl_url": "http://ssd.jpl.nasa.gov/sbdb.cgi?sstr=3624593",
    "absolute_magnitude_h": 25.0,
    "estimated_diameter": {
        "kilometers": {
            "estimated_diameter_min": 0.02658,
            "estimated_diameter_max": 0.0594346868
        },
        "meters": {
            "estimated_diameter_min": 26.58,
            "estimated_diameter_max": 59.4346868419
        },
        "miles": {
            "estimated_diameter_min": 0.0165160412,
            "estimated_diameter_max": 0.0369309908
        },
        "feet": {
            "estimated_diameter_min": 87.2047272,
            "estimated_diameter_max": 194.9956979785
        }
    },
    "is_potentially_hazardous_asteroid": false,
    "close_approach_data": [
        {
            "close_approach_date": "2012-12-29",
            "close_approach_date_full": "2012-Dec-29 21:02",
            "epoch_date_close_approach": 1356814920000,
            "relative_velocity": {
                "kilometers_per_second": "13.2467331657",
                "kilometers_per_hour": "47688.2393965034",
                "miles_per_hour": "29631.617418344"
            },
            "miss_distance": {
                "astronomical": "0.0290231977",
                "lunar": "11.2900239053",
                "kilometers": "4341808.556508899",
                "miles": "2697874.7349008462"
            },
            "orbiting_body": "Earth"
        }
    ],
    "orbital_data": {
        "orbit_id": "4",
        "orbit_determination_date": "2017-04-06 08:47:09",
        "first_observation_date": "2013-01-16",
        "last_observation_date": "2013-01-18",
        "data_arc_in_days": 2,
        "observations_used": 10,
        "orbit_uncertainty": "9",
        "minimum_orbit_intersection": ".00122313",
        "jupiter_tisserand_invariant": "4.280",
        "epoch_osculation": "2456309.5",
        "eccentricity": ".5204725229942514",
        "semi_major_axis": "1.554677995807639",
        "inclination": "1.954734349970188",
        "ascending_node_longitude": "102.9017376166027",
        "orbital_period": "708.0421376276161",
        "perihelion_distance": ".7455108168859911",
        "perihelion_argument": "284.8925055426715",
        "aphelion_distance": "2.363845174729287",
        "perihelion_time": "2456244.861322268861",
        "mean_anomaly": "32.86516825280884",
        "mean_motion": ".5084443154841393",
        "equinox": "J2000",
        "orbit_class": {
            "orbit_class_type": "APO",
            "orbit_class_description": "Near-Earth asteroid orbits which cross the Earth’s orbit similar to that of 1862 Apollo",
            "orbit_class_range": "a (semi-major axis) > 1.0 AU; q (perihelion) < 1.017 AU"
        }
    },
    "is_sentry_object": false
}